NORAD_CAT_ID,OBJECT_NAME,OBJECT_TYPE,EPOCH,MEAN_MOTION,ECCENTRICITY,INCLINATION,RA_OF_ASC_NODE,ARG_OF_PERICENTER,MEAN_ANOMALY,BSTAR,MEAN_MOTION_DOT,MEAN_MOTION_DDOT,TLE_LINE0,TLE_LINE1,TLE_LINE2,SEMIMAJOR_AXIS,PERIOD,APOGEE,PERIGEE,DECAYED
51150.0,STARLINK-3357,PAYLOAD,2023-04-07 05:46:04,15.08840447,0.0001189,53.2165,51.0926,107.9349,252.1773,0.00012399,1.686e-05,0.0,0 STARLINK-3357,1 51150U 22005AY  23097.24033173  .00001686  00000-0  12399-3 0  9993,2 51150  53.2165  51.0926 0001189 107.9349 252.1773 15.08840447 68700,6917.879,95.438,540.567,538.921,0.0
51150.0,STARLINK-3357,PAYLOAD,2023-04-08 05:36:51,15.08848782,0.0001176,53.2171,46.6342,102.6884,257.424,0.00025334,3.747e-05,0.0,0 STARLINK-3357,1 51150U 22005AY  23098.23393066  .00003747  00000-0  25334-3 0  9996,2 51150  53.2171  46.6342 0001176 102.6884 257.4240 15.08848782 67741,6917.854,95.437,540.532,538.905,0.0
51150.0,STARLINK-3357,PAYLOAD,2023-04-09 05:27:38,15.08848765,0.0001327,53.2171,42.1736,96.7329,263.3814,0.00032579,4.902e-05,0.0,0 STARLINK-3357,1 51150U 22005AY  23099.22753315  .00004902  00000-0  32579-3 0  9996,2 51150  53.2171  42.1736 0001327  96.7329 263.3814 15.08848765 69009,6917.854,95.437,540.637,538.801,0.0
51150.0,STARLINK-3357,PAYLOAD,2023-04-10 05:18:25,15.08848942,0.0001212,53.2169,37.7125,90.8618,269.2513,0.00025855,3.83e-05,0.0,0 STARLINK-3357,1 51150U 22005AY  23100.22113320  .00003830  00000-0  25855-3 0  9993,2 51150  53.2169  37.7125 0001212  90.8618 269.2513 15.08848942 69151,6917.853,95.437,540.557,538.88,0.0
51150.0,STARLINK-3357,PAYLOAD,2023-04-11 05:09:12,15.08863476,0.0001367,53.217,33.2518,98.3495,261.7652,0.00056819,8.772e-05,0.0,0 STARLINK-3357,1 51150U 22005AY  23101.21472448  .00008772  00000-0  56819-3 0  9996,2 51150  53.2170  33.2518 0001367  98.3495 261.7652 15.08863476 68190,6917.809,95.436,540.619,538.728,0.0
51150.0,STARLINK-3357,PAYLOAD,2023-04-11 19:27:41,15.08837578,0.000135,53.2165,30.5778,82.5082,277.6063,-9.933e-05,-1.868e-05,0.0,0 STARLINK-3357,1 51150U 22005AY  23101.81089231 -.00001868  00000-0 -99330-4 0  9993,2 51150  53.2165  30.5778 0001350  82.5082 277.6063 15.08837578 69390,6917.888,95.438,540.687,538.819,0.0
51150.0,STARLINK-3357,PAYLOAD,2023-04-12 04:59:59,15.08840888,9.8e-05,53.2171,28.7919,88.3637,271.7468,8.0301e-05,9.9e-06,0.0,0 STARLINK-3357,1 51150U 22005AY  23102.20833296  .00000990  00000-0  80301-4 0  9996,2 51150  53.2171  28.7919 0000980  88.3637 271.7468 15.08840888 68347,6917.878,95.437,540.421,539.065,0.0
51150.0,STARLINK-3357,PAYLOAD,2023-04-13 04:50:47,15.08845798,9.9e-05,53.2175,24.3317,78.6901,281.4203,0.00044469,6.798e-05,0.0,0 STARLINK-3357,1 51150U 22005AY  23103.20193545  .00006798  00000-0  44469-3 0  9999,2 51150  53.2175  24.3317 0000990  78.6901 281.4203 15.08845798 68498,6917.863,95.437,540.413,539.043,0.0
51150.0,STARLINK-3357,PAYLOAD,2023-04-14 03:06:10,15.08857601,7.62e-05,53.2173,20.1688,87.6618,272.4461,0.00062999,9.757e-05,0.0,0 STARLINK-3357,1 51150U 22005AY  23104.12929278  .00009757  00000-0  62999-3 0  9997,2 51150  53.2173  20.1688 0000762  87.6618 272.4461 15.08857601 68631,6917.827,95.436,540.219,539.164,0.0
51150.0,STARLINK-3357,PAYLOAD,2023-04-15 04:32:21,15.08850029,0.0001026,53.2175,15.4102,79.916,280.1948,0.00022169,3.243e-05,0.0,0 STARLINK-3357,1 51150U 22005AY  23105.18913257  .00003243  00000-0  22169-3 0  9993,2 51150  53.2175  15.4102 0001026  79.9160 280.1948 15.08850029 68791,6917.85,95.437,540.425,539.005,0.0
51150.0,STARLINK-3357,PAYLOAD,2023-04-15 22:01:35,15.08837039,0.0001309,53.2171,12.139,81.4964,278.6176,-2.2205e-05,-6.41e-06,0.0,0 STARLINK-3357,1 51150U 22005AY  23105.91777725 -.00000641  00000-0 -22205-4 0  9995,2 51150  53.2171  12.1390 0001309  81.4964 278.6176 15.08837039 70013,6917.889,95.438,540.66,538.849,0.0
51150.0,STARLINK-3357,PAYLOAD,2023-04-16 02:47:45,15.08844889,9.58e-05,53.217,11.2465,81.7415,278.3685,0.00010324,1.356e-05,0.0,0 STARLINK-3357,1 51150U 22005AY  23106.11649476  .00001356  00000-0  10324-3 0  9999,2 51150  53.2170  11.2465 0000958  81.7415 278.3685 15.08844889 68939,6917.865,95.437,540.393,539.068,0.0
51150.0,STARLINK-3357,PAYLOAD,2023-04-16 21:52:23,15.08835971,9.66e-05,53.2174,7.6817,79.2452,280.8649,0.00014512,2.022e-05,0.0,0 STARLINK-3357,1 51150U 22005AY  23106.91138257  .00002022  00000-0  14512-3 0  9991,2 51150  53.2174   7.6817 0000966  79.2452 280.8649 15.08835971 69059,6917.893,95.438,540.426,539.089,0.0
51150.0,STARLINK-3357,PAYLOAD,2023-04-17 02:38:32,15.08845097,9.98e-05,53.2169,6.7874,98.4372,261.6733,0.00038446,5.837e-05,0.0,0 STARLINK-3357,1 51150U 22005AY  23107.11009973  .00005837  00000-0  38446-3 0  9995,2 51150  53.2169   6.7874 0000998  98.4372 261.6733 15.08845097 69089,6917.865,95.437,540.42,539.039,0.0
51150.0,STARLINK-3357,PAYLOAD,2023-04-17 21:43:10,15.08843897,0.0001015,53.2173,3.2215,83.4893,276.6215,0.00044916,6.869e-05,0.0,0 STARLINK-3357,1 51150U 22005AY  23107.90498427  .00006869  00000-0  44916-3 0  9993,2 51150  53.2173   3.2215 0001015  83.4893 276.6215 15.08843897 69209,6917.868,95.437,540.436,539.031,0.0
51150.0,STARLINK-3357,PAYLOAD,2023-04-18 02:29:19,15.08851938,9.13e-05,53.2166,2.3276,105.8983,254.211,0.00067489,0.00010473,0.0,0 STARLINK-3357,1 51150U 22005AY  23108.10370143  .00010473  00000-0  67489-3 0  9996,2 51150  53.2166   2.3276 0000913 105.8983 254.2110 15.08851938 69237,6917.844,95.437,540.34,539.077,0.0
51150.0,STARLINK-3357,PAYLOAD,2023-04-19 02:20:07,15.08847593,0.000104,53.2182,357.8662,111.8623,248.248,0.00054345,8.373e-05,0.0,0 STARLINK-3357,1 51150U 22005AY  23109.09730489  .00008373  00000-0  54345-3 0  9991,2 51150  53.2182 357.8662 0001040 111.8623 248.2480 15.08847593 70497,6917.857,95.437,540.442,539.003,0.0
51150.0,STARLINK-3357,PAYLOAD,2023-04-20 00:35:29,15.08888278,0.0001061,53.2179,353.7031,116.4948,243.6153,0.0012814,0.00020191,0.0,0 STARLINK-3357,1 51150U 22005AY  23110.02464688  .00020191  00000-0  12814-2 0  9997,2 51150  53.2179 353.7031 0001061 116.4948 243.6153 15.08888278 70639,6917.733,95.435,540.332,538.864,0.0
51150.0,STARLINK-3357,PAYLOAD,2023-04-20 22:50:54,15.08830774,0.0001365,53.2181,349.5404,89.7396,270.3753,7.5335e-05,9.11e-06,0.0,0 STARLINK-3357,1 51150U 22005AY  23110.95202174  .00000911  00000-0  75335-4 0  9996,2 51150  53.2181 349.5404 0001365  89.7396 270.3753 15.08830774 69667,6917.909,95.438,540.718,538.829,0.0
51150.0,STARLINK-3357,PAYLOAD,2023-04-21 05:12:27,15.08822375,0.0001217,53.2171,348.3528,91.7922,268.321,0.0003508,5.297e-05,0.0,0 STARLINK-3357,1 51150U 22005AY  23111.21698753  .00005297  00000-0  35080-3 0  9992,2 51150  53.2171 348.3528 0001217  91.7922 268.3210 15.08822375 70816,6917.934,95.439,540.641,538.957,0.0
51150.0,STARLINK-3357,PAYLOAD,2023-04-21 08:23:14,15.08822152,0.0001255,53.2174,347.7588,95.0297,265.0839,0.00056589,8.725e-05,0.0,0 STARLINK-3357,1 51150U 22005AY  23111.34947036  .00008725  00000-0  56589-3 0  9993,2 51150  53.2174 347.7588 0001255  95.0297 265.0839 15.08822152 69724,6917.935,95.439,540.668,538.932,0.0
51150.0,STARLINK-3357,PAYLOAD,2023-04-21 22:41:42,15.08846635,0.0001134,53.2171,345.0823,95.6178,264.4943,0.0011516,0.00018091,0.0,0 STARLINK-3357,1 51150U 22005AY  23111.94563153  .00018091  00000-0  11516-2 0  9990,2 51150  53.2171 345.0823 0001134  95.6178 264.4943 15.08846635 69815,6917.86,95.437,540.51,538.941,0.0
51150.0,STARLINK-3357,PAYLOAD,2023-04-22 01:52:28,15.08853892,0.0001157,53.2167,344.4869,93.1162,266.9963,0.0012307,0.0001936,0.0,0 STARLINK-3357,1 51150U 22005AY  23112.07811008  .00019360  00000-0  12307-2 0  9999,2 51150  53.2167 344.4869 0001157  93.1162 266.9963 15.08853892 70942,6917.838,95.437,540.503,538.903,0.0
51150.0,STARLINK-3357,PAYLOAD,2023-04-22 16:10:57,15.08844458,0.0001127,53.2163,341.8107,95.0733,265.0388,0.00042181,6.432e-05,0.0,0 STARLINK-3357,1 51150U 22005AY  23112.67427084  .00006432  00000-0  42181-3 0  9992,2 51150  53.2163 341.8107 0001127  95.0733 265.0388 15.08844458 71036,6917.867,95.437,540.511,538.952,0.0
51150.0,STARLINK-3357,PAYLOAD,2023-04-22 22:32:29,15.08846399,0.0001161,53.2165,340.6209,104.4728,255.6393,0.00040002,6.085e-05,0.0,0 STARLINK-3357,1 51150U 22005AY  23112.93922816  .00006085  00000-0  40002-3 0  9998,2 51150  53.2165 340.6209 0001161 104.4728 255.6393 15.08846399 69961,6917.861,95.437,540.529,538.923,0.0
51150.0,STARLINK-3357,PAYLOAD,2023-04-23 16:01:44,15.08835524,0.0001097,53.2156,337.3495,96.892,263.2197,5.5974e-06,-1.99e-06,0.0,0 STARLINK-3357,1 51150U 22005AY  23113.66787382 -.00000199  00000-0  55974-5 0  9993,2 51150  53.2156 337.3495 0001097  96.8920 263.2197 15.08835524 70076,6917.894,95.438,540.518,539.0,0.0
51150.0,STARLINK-3357,PAYLOAD,2023-04-23 22:23:16,15.08849887,0.0001233,53.2168,336.16,93.2133,266.9001,0.00050454,7.753e-05,0.0,0 STARLINK-3357,1 51150U 22005AY  23113.93283429  .00007753  00000-0  50454-3 0  9994,2 51150  53.2168 336.1600 0001233  93.2133 266.9001 15.08849887 71222,6917.85,95.437,540.568,538.862,0.0
51150.0,STARLINK-3357,PAYLOAD,2023-04-24 22:14:02,15.08891619,0.0001193,53.2166,331.6998,91.7278,268.3851,0.0013867,0.00021881,0.0,0 STARLINK-3357,1 51150U 22005AY  23114.92641458  .00021881  00000-0  13867-2 0  9998,2 51150  53.2166 331.6998 0001193  91.7278 268.3851 15.08891619 70260,6917.723,95.434,540.413,538.762,0.0
51150.0,STARLINK-3357,PAYLOAD,2023-04-26 13:58:44,15.08839114,0.000215,53.2164,324.269,68.5144,291.6078,0.0016352,0.00025832,0.0,0 STARLINK-3357,1 51150U 22005AY  23116.58245896  .00025832  00000-0  16352-2 0  9990,2 51150  53.2164 324.2690 0002150  68.5144 291.6078 15.08839114 70513,6917.883,95.438,541.235,538.261,0.0
51150.0,STARLINK-3357,PAYLOAD,2023-04-26 20:20:16,15.0885004,0.0001566,53.217,323.0775,53.9456,306.1681,0.0015363,0.00024254,0.0,0 STARLINK-3357,1 51150U 22005AY  23116.84741693  .00024254  00000-0  15363-2 0  9993,2 51150  53.2170 323.0775 0001566  53.9456 306.1681 15.08850040 70552,6917.85,95.437,540.798,538.631,0.0
